{
  "type": "FeatureCollection",
  "features": [
    {
      "type": "Feature",
      "geometry": {
        "type": "Polygon",
        "coordinates": [
          [
            [
              -15,
              48
            ],
            [
              -15,
              35
            ],
            [
              -2,
              35
            ],
            [
              -2,
              48
            ],
            [
              -15,
              48
            ]
          ]
        ]
      },
      "properties": {
        "title": "prologue",
        "description": "Lorient to Cadiz",
        "stroke": "#FF0000",
        "fill": "#FF0000",
        "tooltip_edge": "Edge Lat: mid_lat, Lon: mid_lon"
      }
    },
    {
      "type": "Feature",
      "geometry": {
        "type": "Point",
        "coordinates": [
          -3.377,
          47.696
        ]
      },
      "properties": {
        "title": "Lorient",
        "description": "prologue to depart Lorient on 2025-08-31"
      }
    },
    {
      "type": "Feature",
      "geometry": {
        "type": "Polygon",
        "coordinates": [
          [
            [
              -30,
              40
            ],
            [
              -30,
              15
            ],
            [
              -5,
              15
            ],
            [
              -5,
              40
            ],
            [
              -30,
              40
            ]
          ]
        ]
      },
      "properties": {
        "title": "leg_1",
        "description": "Cadiz to Mindelo",
        "stroke": "#FF7F00",
        "fill": "#FF7F00",
        "tooltip_edge": "Edge Lat: mid_lat, Lon: mid_lon"
      }
    },
    {
      "type": "Feature",
      "geometry": {
        "type": "Point",
        "coordinates": [
          -6.282,
          36.55
        ]
      },
      "properties": {
        "title": "Cadiz",
        "description": "leg_1 to depart Cadiz on 2025-09-14"
      }
    },
    {
      "type": "Feature",
      "geometry": {
        "type": "Polygon",
        "coordinates": [
          [
            [
              -50,
              20
            ],
            [
              -50,
              -45
            ],
            [
              60,
              -45
            ],
            [
              60,
              20
            ],
            [
              -50,
              20
            ]
          ]
        ]
      },
      "properties": {
        "title": "leg_2",
        "description": "Mindelo to Reunion",
        "stroke": "#FFFF00",
        "fill": "#FFFF00",
        "tooltip_edge": "Edge Lat: mid_lat, Lon: mid_lon"
      }
    },
    {
      "type": "Feature",
      "geometry": {
        "type": "Point",
        "coordinates": [
          -24.993,
          16.886
        ]
      },
      "properties": {
        "title": "Mindelo",
        "description": "leg_2 to depart Mindelo on 2025-10-02"
      }
    },
    {
      "type": "Feature",
      "geometry": {
        "type": "Polygon",
        "coordinates": [
          [
            [
              50,
              -5
            ],
            [
              50,
              -45
            ],
            [
              155,
              -45
            ],
            [
              155,
              -5
            ],
            [
              50,
              -5
            ]
          ]
        ]
      },
      "properties": {
        "title": "leg_3",
        "description": "Reunion to Sydney",
        "stroke": "#00FF00",
        "fill": "#00FF00",
        "tooltip_edge": "Edge Lat: mid_lat, Lon: mid_lon"
      }
    },
    {
      "type": "Feature",
      "geometry": {
        "type": "Point",
        "coordinates": [
          55.278,
          -20.936
        ]
      },
      "properties": {
        "title": "Reunion",
        "description": "leg_3 to depart Reunion on 2025-11-21"
      }
    },
    {
      "type": "Feature",
      "geometry": {
        "type": "Polygon",
        "coordinates": [
          [
            [
              150,
              -25
            ],
            [
              150,
              -45
            ],
            [
              180,
              -45
            ],
            [
              180,
              -25
            ],
            [
              150,
              -25
            ]
          ]
        ]
      },
      "properties": {
        "title": "leg_4a",
        "description": "Sydney to Valparaiso",
        "stroke": "#0000FF",
        "fill": "#0000FF",
        "tooltip_edge": "Edge Lat: mid_lat, Lon: mid_lon"
      }
    },
    {
      "type": "Feature",
      "geometry": {
        "type": "Point",
        "coordinates": [
          151.283,
          -33.733
        ]
      },
      "properties": {
        "title": "Sydney",
        "description": "leg_4a to depart Sydney on 2026-01-01"
      }
    },
    {
      "type": "Feature",
      "geometry": {
        "type": "Polygon",
        "coordinates": [
          [
            [
              -180,
              -25
            ],
            [
              -180,
              -45
            ],
            [
              -70,
              -45
            ],
            [
              -70,
              -25
            ],
            [
              -180,
              -25
            ]
          ]
        ]
      },
      "properties": {
        "title": "leg_4b",
        "description": "Sydney to Valparaiso",
        "stroke": "#0000FF",
        "fill": "#0000FF",
        "tooltip_edge": "Edge Lat: mid_lat, Lon: mid_lon"
      }
    },
    {
      "type": "Feature",
      "geometry": {
        "type": "Point",
        "coordinates": [
          151.283,
          -33.733
        ]
      },
      "properties": {
        "title": "Sydney",
        "description": "leg_4b to depart Sydney on 2026-01-01"
      }
    },
    {
      "type": "Feature",
      "geometry": {
        "type": "Polygon",
        "coordinates": [
          [
            [
              -90,
              0
            ],
            [
              -90,
              -60
            ],
            [
              -20,
              -60
            ],
            [
              -20,
              0
            ],
            [
              -90,
              0
            ]
          ]
        ]
      },
      "properties": {
        "title": "leg_5",
        "description": "Valparaiso to Recife",
        "stroke": "#4B0082",
        "fill": "#4B0082",
        "tooltip_edge": "Edge Lat: mid_lat, Lon: mid_lon"
      }
    },
    {
      "type": "Feature",
      "geometry": {
        "type": "Point",
        "coordinates": [
          -71.617,
          -33.045
        ]
      },
      "properties": {
        "title": "Valparaiso",
        "description": "leg_5 to depart Valparaiso on 2026-02-18"
      }
    },
    {
      "type": "Feature",
      "geometry": {
        "type": "Polygon",
        "coordinates": [
          [
            [
              -50,
              55
            ],
            [
              -50,
              -10
            ],
            [
              -2,
              -10
            ],
            [
              -2,
              55
            ],
            [
              -50,
              55
            ]
          ]
        ]
      },
      "properties": {
        "title": "leg_6",
        "description": "Recife to Lorient",
        "stroke": "#9400D3",
        "fill": "#9400D3",
        "tooltip_edge": "Edge Lat: mid_lat, Lon: mid_lon"
      }
    },
    {
      "type": "Feature",
      "geometry": {
        "type": "Point",
        "coordinates": [
          -34.854,
          -8.043
        ]
      },
      "properties": {
        "title": "Recife",
        "description": "leg_6 to depart Recife on 2026-03-29"
      }
    }
  ]
}